{"fetched_at":"2026-03-30T13:17:50Z","count":15418,"tles":[{"name":"SAOCOM 1B","line1":"1 46265U 20059A   26088.16727429  .00000318  00000+0  46531-4 0  9995","line2":"2 46265  97.8906 275.1628 0001529  86.3040 273.8348 14.82156410301633","category":"Other"},{"name":"H-2A R/B","line1":"1 43682U 18084L   26088.20327037  .00027229  00000+0  62997-3 0  9999","line2":"2 43682  98.8708 309.7726 0023691 317.2037  42.7360 15.42169578408780","category":"Other"},{"name":"CZ-2C R/B","line1":"1 52794U 22058K   26087.66300685  .00046065  00000+0  63634-3 0  9996","line2":"2 52794  50.1874 220.5877 0041540 282.1630  77.4689 15.55620973213089","category":"Other"},{"name":"GSLV R/B","line1":"1 54149U 22138AN  26088.17495220  .00003155  00000+0  27099-3 0  9996","line2":"2 54149  87.3861 159.8394 0024016  82.5349 277.8611 14.96897449186841","category":"Other"},{"name":"CSS (TIANHE)","line1":"1 48274U 21035A   26087.97092897  .00015046  00000+0  17362-3 0  9997","line2":"2 48274  41.4668  90.7542 0003972  51.5615 308.5580 15.61596075280629","category":"Other"},{"name":"SAOCOM 1A","line1":"1 43641U 18076A   26088.20354670  .00000464  00000+0  64811-4 0  9998","line2":"2 43641  97.8906 276.1007 0001434  86.2121 273.9256 14.82160056404256","category":"Other"},{"name":"ACS3","line1":"1 59588U 24077B   26088.07683774  .00027867  00000+0  21884-1 0  9994","line2":"2 59588  97.1962  24.8306 0072527  32.5610 327.9997 13.90503655 96899","category":"Other"},{"name":"XRISM","line1":"1 57800U 23137A   26088.18615821  .00007642  00000+0  43159-3 0  9995","line2":"2 57800  31.0016 157.5370 0007936 235.2691 124.7201 15.11724479140748","category":"Other"},{"name":"COSMOS 2550","line1":"1 48865U 21056A   26087.49272868 -.00000186  00000+0  18968-6 0  9997","line2":"2 48865  67.1421 344.0047 0008440 269.5686  90.4502 15.33828274266348","category":"Other"},{"name":"CZ-2C R/B","line1":"1 54039U 22132E   26088.09378715  .00049218  00000+0  52394-3 0  9994","line2":"2 54039  97.2957  92.0262 0017581  27.9377 332.2821 15.63668117193402","category":"Other"},{"name":"SZ-21 MODULE","line1":"1 66515U 25246C   26088.03780880  .00044105  00000+0  35621-3 0  9993","line2":"2 66515  41.4742  84.1231 0001715 213.3550 146.7184 15.70036431 21115","category":"Other"}]}